STARLINK-36059          
1 66904U 25283AC  25354.83335647 -.00057531  00000+0 -39102-3 0  9993
2 66904  53.1576  33.1445 0001069  85.5653 255.9725 15.74199240  3732
STARLINK-36075          
1 66905U 25283AD  25354.83335647 -.00062230  00000+0 -42349-3 0  9993
2 66905  53.1575  33.1410 0001134  80.7873 262.6588 15.74202285  3734
1998-067XS              
1 66906U 98067XS  25354.46222212  .00021596  00000+0  37246-3 0  9994
2 66906  51.6311 104.1082 0003002 237.5000 122.5699 15.50962254  2818
1998-067XT              
1 66907U 98067XT  25353.48808759  .00047666  00000+0  77339-3 0  9995
2 66907  51.6306 108.8528 0003998 265.7173  94.3360 15.52255247  2660
1998-067XU              
1 66908U 98067XU  25354.58170096  .00045874  00000+0  73918-3 0  9992
2 66908  51.6312 103.4063 0003923 272.2862  87.7679 15.52465702  2836
SILVERSAT               
1 66909U 98067XV  25353.55080352  .00049748  00000+0  79912-3 0  9998
2 66909  51.6306 108.5226 0003839 268.6960  91.3590 15.52516520  2671
1998-067XW              
1 66910U 98067XW  25354.83633681  .00044930  00000+0  71944-3 0  9996
2 66910  51.6307 102.1064 0004199 252.0731 107.9801 15.52648438  2872
1998-067XX              
1 66911U 98067XX  25354.64075389  .00051512  00000+0  81113-3 0  9994
2 66911  51.6313 103.0498 0003876 258.0568 101.9988 15.53054787  2831
1998-067XY              
1 66912U 98067XY  25353.61960698  .00038197  00000+0  63264-3 0  9998
2 66912  51.6307 108.2310 0004012 260.8810  99.1725 15.51780846  2678
2025-284A               
1 66913U 25284A   25352.26700647  .00009066  00000+0  46238-3 0  9991
2 66913  80.4052 122.7714 0020368 156.4299 203.7866 15.16462178  1964
2025-284B               
1 66914U 25284B   25350.28554881  .00008068  00000+0  38445-3 0  9991
2 66914  80.4045 125.2713 0008179 234.9626 125.0834 15.18985981  1668
HULIANWANG DIGUI-105    
1 66915U 25285A   25354.88972425 -.00000002  00000+0  94511-4 0  9999
2 66915  50.0049  84.0851 0008051 309.9341  50.0856 14.03717974  2050
